QIANFAN-1               
1 60379U 24140A   25263.22193339  .00000086  00000+0  11450-3 0  9993
2 60379  88.9782 307.9373 0019738  96.6672 263.6727 13.50972890 56070
QIANFAN-2               
1 60380U 24140B   25263.32464444  .00000075  00000+0  97053-4 0  9996
2 60380  88.9768 307.7776 0014760  72.7550 287.5215 13.50965013 56145
QIANFAN-3               
1 60381U 24140C   25263.25886361  .00000076  00000+0  98876-4 0  9990
2 60381  88.9761 307.9232 0016055  83.6007 276.6972 13.50965085 56042
QIANFAN-4               
1 60382U 24140D   25263.23427470  .00000104  00000+0  14220-3 0  9993
2 60382  88.9786 307.8024 0015044  75.2141 285.0676 13.50972313 56161
QIANFAN-5               
1 60383U 24140E   25263.28360347  .00000087  00000+0  11530-3 0  9999
2 60383  88.9761 307.9463 0017409  93.1652 267.1491 13.50968161 56034
QIANFAN-6               
1 60384U 24140F   25263.30420076  .00000092  00000+0  12334-3 0  9998
2 60384  88.9787 307.6681 0015241  80.0384 280.2487 13.50964140 56237
QIANFAN-7               
1 60385U 24140G   25263.26411348  .00000451  00000+0  17767-3 0  9990
2 60385  88.9788 303.5426 0013134 322.6030  37.4249 14.27551809 58489
QIANFAN-8               
1 60386U 24140H   25263.23832934  .00000083  00000+0  10980-3 0  9997
2 60386  88.9789 307.9110 0018716  81.6547 278.6725 13.50968005 56071
